{"type": "FeatureCollection", "features": [ {"type": "Feature", "properties": {"norad_id": 33153, "name": "INTELSAT 25 (IS-25)", "group": "intelsat", "lat": -2.228333821223068, "lon": -12.151836819452743, "alt_km": 35783.81302266168, "timestamp": "2025-12-16T19:34:23.932866+00:00", "meta": {"OBJECT_NAME": "INTELSAT 25 (IS-25)", "OBJECT_ID": "2008-034A", "EPOCH": "2025-12-15T21:47:55.393728", "MEAN_MOTION": 1.00271314, "ECCENTRICITY": 0.0004865, "INCLINATION": 2.2356, "RA_OF_ASC_NODE": 82.6164, "ARG_OF_PERICENTER": 182.9535, "MEAN_ANOMALY": 114.7228, "EPHEMERIS_TYPE": 0, "CLASSIFICATION_TYPE": "U", "NORAD_CAT_ID": 33153, "ELEMENT_SET_NO": 999, "REV_AT_EPOCH": 6385, "BSTAR": 0, "MEAN_MOTION_DOT": -2.03e-06, "MEAN_MOTION_DDOT": 0}, "tle": {"line1": "1 33153U 08034A   25349.90828002 -.00000203  00000+0  00000+0 0  9996", "line2": "2 33153   2.2356  82.6164 0004865 182.9535 114.7228  1.00271314 63854"}}, "geometry": {"type": "Point", "coordinates": [-12.151836819452743, -2.228333821223068]}}, {"type": "Feature", "properties": {"norad_id": 33376, "name": "GALAXY 19 (G-19)", "group": "intelsat", "lat": -0.01244734691063684, "lon": -77.70176703775255, "alt_km": 35775.79959939828, "timestamp": "2025-12-16T19:34:23.932879+00:00", "meta": {"OBJECT_NAME": "GALAXY 19 (G-19)", "OBJECT_ID": "2008-045A", "EPOCH": "2025-12-15T21:29:12.186816", "MEAN_MOTION": 1.00271159, "ECCENTRICITY": 0.00025734, "INCLINATION": 0.0266, "RA_OF_ASC_NODE": 277.9689, "ARG_OF_PERICENTER": 348.5535, "MEAN_ANOMALY": 43.5758, "EPHEMERIS_TYPE": 0, "CLASSIFICATION_TYPE": "U", "NORAD_CAT_ID": 33376, "ELEMENT_SET_NO": 999, "REV_AT_EPOCH": 6306, "BSTAR": 0, "MEAN_MOTION_DOT": -1.17e-06, "MEAN_MOTION_DDOT": 0}, "tle": {"line1": "1 33376U 08045A   25349.89527994 -.00000117  00000+0  00000+0 0  9993", "line2": "2 33376   0.0266 277.9689 0002573 348.5535  43.5758  1.00271159 63069"}}, "geometry": {"type": "Point", "coordinates": [-77.70176703775255, -0.01244734691063684]}}, {"type": "Feature", "properties": {"norad_id": 35493, "name": "FM-5", "group": "intelsat", "lat": -0.009677355707826091, "lon": -66.83901616566999, "alt_km": 35789.1023786058, "timestamp": "2025-12-16T19:34:23.932890+00:00", "meta": {"OBJECT_NAME": "FM-5", "OBJECT_ID": "2009-034A", "EPOCH": "2025-12-15T19:43:37.875360", "MEAN_MOTION": 1.00272895, "ECCENTRICITY": 9.687e-05, "INCLINATION": 0.0228, "RA_OF_ASC_NODE": 288.2131, "ARG_OF_PERICENTER": 221.6545, "MEAN_ANOMALY": 144.6238, "EPHEMERIS_TYPE": 0, "CLASSIFICATION_TYPE": "U", "NORAD_CAT_ID": 35493, "ELEMENT_SET_NO": 999, "REV_AT_EPOCH": 4480, "BSTAR": 0, "MEAN_MOTION_DOT": -1.78e-06, "MEAN_MOTION_DDOT": 0}, "tle": {"line1": "1 35493U 09034A   25349.82196615 -.00000178  00000+0  00000+0 0  9996", "line2": "2 35493   0.0228 288.2131 0000968 221.6545 144.6238  1.00272895 44809"}}, "geometry": {"type": "Point", "coordinates": [-66.83901616566999, -0.009677355707826091]}}, {"type": "Feature", "properties": {"norad_id": 36097, "name": "INTELSAT 14 (IS-14)", "group": "intelsat", "lat": 0.00768040554012625, "lon": -25.675498445628616, "alt_km": 35780.839750594234, "timestamp": "2025-12-16T19:34:23.932902+00:00", "meta": {"OBJECT_NAME": "INTELSAT 14 (IS-14)", "OBJECT_ID": "2009-064A", "EPOCH": "2025-12-15T22:25:17.666400", "MEAN_MOTION": 1.00272663, "ECCENTRICITY": 0.00024832, "INCLINATION": 0.0158, "RA_OF_ASC_NODE": 310.6708, "ARG_OF_PERICENTER": 322.7022, "MEAN_ANOMALY": 102.7913, "EPHEMERIS_TYPE": 0, "CLASSIFICATION_TYPE": "U", "NORAD_CAT_ID": 36097, "ELEMENT_SET_NO": 999, "REV_AT_EPOCH": 5876, "BSTAR": 0, "MEAN_MOTION_DOT": -2.51e-06, "MEAN_MOTION_DDOT": 0}, "tle": {"line1": "1 36097U 09064A   25349.93423225 -.00000251  00000+0  00000+0 0  9994", "line2": "2 36097   0.0158 310.6708 0002483 322.7022 102.7913  1.00272663 58767"}}, "geometry": {"type": "Point", "coordinates": [-25.675498445628616, 0.00768040554012625]}}, {"type": "Feature", "properties": {"norad_id": 36106, "name": "INTELSAT 15 (IS-15)", "group": "intelsat", "lat": 0.020836015529269804, "lon": 104.44016479724303, "alt_km": 35795.240335802824, "timestamp": "2025-12-16T19:34:23.932915+00:00", "meta": {"OBJECT_NAME": "INTELSAT 15 (IS-15)", "OBJECT_ID": "2009-067A", "EPOCH": "2025-12-15T20:38:24.551232", "MEAN_MOTION": 1.00271939, "ECCENTRICITY": 0.00021938, "INCLINATION": 0.0114, "RA_OF_ASC_NODE": 313.2969, "ARG_OF_PERICENTER": 321.4401, "MEAN_ANOMALY": 204.7798, "EPHEMERIS_TYPE": 0, "CLASSIFICATION_TYPE": "U", "NORAD_CAT_ID": 36106, "ELEMENT_SET_NO": 999, "REV_AT_EPOCH": 3939, "BSTAR": 0, "MEAN_MOTION_DOT": -1.63e-06, "MEAN_MOTION_DDOT": 0}, "tle": {"line1": "1 36106U 09067A   25349.86000638 -.00000163  00000+0  00000+0 0  9991", "line2": "2 36106   0.0114 313.2969 0002193 321.4401 204.7798  1.00271939 39390"}}, "geometry": {"type": "Point", "coordinates": [104.44016479724303, 0.020836015529269804]}}, {"type": "Feature", "properties": {"norad_id": 36131, "name": "DIRECTV 12", "group": "intelsat", "lat": -0.02261680557332445, "lon": -83.43799782227485, "alt_km": 35786.70678615127, "timestamp": "2025-12-16T19:34:23.932927+00:00", "meta": {"OBJECT_NAME": "DIRECTV 12", "OBJECT_ID": "2009-075A", "EPOCH": "2025-12-15T21:27:34.843392", "MEAN_MOTION": 1.00269806, "ECCENTRICITY": 3.323e-05, "INCLINATION": 0.0471, "RA_OF_ASC_NODE": 156.382, "ARG_OF_PERICENTER": 212.2983, "MEAN_ANOMALY": 295.2911, "EPHEMERIS_TYPE": 0, "CLASSIFICATION_TYPE": "U", "NORAD_CAT_ID": 36131, "ELEMENT_SET_NO": 999, "REV_AT_EPOCH": 4471, "BSTAR": 0, "MEAN_MOTION_DOT": -8.1e-07, "MEAN_MOTION_DDOT": 0}, "tle": {"line1": "1 36131U 09075A   25349.89415328 -.00000081  00000+0  00000+0 0  9996", "line2": "2 36131   0.0471 156.3820 0000332 212.2983 295.2911  1.00269806 44715"}}, "geometry": {"type": "Point", "coordinates": [-83.43799782227485, -0.02261680557332445]}}, {"type": "Feature", "properties": {"norad_id": 36397, "name": "INTELSAT 16 (IS-16)", "group": "intelsat", "lat": -0.016668297890466196, "lon": -56.89644535646583, "alt_km": 35779.620925587355, "timestamp": "2025-12-16T19:34:23.932938+00:00", "meta": {"OBJECT_NAME": "INTELSAT 16 (IS-16)", "OBJECT_ID": "2010-006A", "EPOCH": "2025-12-15T21:35:11.613408", "MEAN_MOTION": 1.00271314, "ECCENTRICITY": 0.00019208, "INCLINATION": 0.0103, "RA_OF_ASC_NODE": 327.9434, "ARG_OF_PERICENTER": 300.4107, "MEAN_ANOMALY": 64.0464, "EPHEMERIS_TYPE": 0, "CLASSIFICATION_TYPE": "U", "NORAD_CAT_ID": 36397, "ELEMENT_SET_NO": 999, "REV_AT_EPOCH": 5781, "BSTAR": 0, "MEAN_MOTION_DOT": -2.22e-06, "MEAN_MOTION_DDOT": 0}, "tle": {"line1": "1 36397U 10006A   25349.89943997 -.00000222  00000+0  00000+0 0  9991", "line2": "2 36397   0.0103 327.9434 0001920 300.4107  64.0464  1.00271314 57817"}}, "geometry": {"type": "Point", "coordinates": [-56.89644535646583, -0.016668297890466196]}}, {"type": "Feature", "properties": {"norad_id": 37185, "name": "XM-5", "group": "intelsat", "lat": -0.028419659704140145, "lon": -95.8781150244494, "alt_km": 35789.56614623895, "timestamp": "2025-12-16T19:34:23.932951+00:00", "meta": {"OBJECT_NAME": "XM-5", "OBJECT_ID": "2010-053A", "EPOCH": "2025-12-15T00:53:38.487264", "MEAN_MOTION": 1.0027191, "ECCENTRICITY": 0.00019003, "INCLINATION": 0.0635, "RA_OF_ASC_NODE": 272.1788, "ARG_OF_PERICENTER": 235.4435, "MEAN_ANOMALY": 194.5481, "EPHEMERIS_TYPE": 0, "CLASSIFICATION_TYPE": "U", "NORAD_CAT_ID": 37185, "ELEMENT_SET_NO": 999, "REV_AT_EPOCH": 5563, "BSTAR": 0, "MEAN_MOTION_DOT": -3e-08, "MEAN_MOTION_DDOT": 0}, "tle": {"line1": "1 37185U 10053A   25349.03725101 -.00000003  00000+0  00000+0 0  9997", "line2": "2 37185   0.0635 272.1788 0001900 235.4435 194.5481  1.00271910 55633"}}, "geometry": {"type": "Point", "coordinates": [-95.8781150244494, -0.028419659704140145]}}, {"type": "Feature", "properties": {"norad_id": 37238, "name": "INTELSAT 17 (IS-17)", "group": "intelsat", "lat": 0.02034705497956397, "lon": 85.29764037341641, "alt_km": 35796.70805360725, "timestamp": "2025-12-16T19:34:23.932963+00:00", "meta": {"OBJECT_NAME": "INTELSAT 17 (IS-17)", "OBJECT_ID": "2010-065B", "EPOCH": "2025-12-15T22:15:45.229248", "MEAN_MOTION": 1.00271776, "ECCENTRICITY": 0.00025255, "INCLINATION": 0.0119, "RA_OF_ASC_NODE": 291.5796, "ARG_OF_PERICENTER": 338.0448, "MEAN_ANOMALY": 215.1462, "EPHEMERIS_TYPE": 0, "CLASSIFICATION_TYPE": "U", "NORAD_CAT_ID": 37238, "ELEMENT_SET_NO": 999, "REV_AT_EPOCH": 5141, "BSTAR": 0, "MEAN_MOTION_DOT": 2.1e-07, "MEAN_MOTION_DDOT": 0}, "tle": {"line1": "1 37238U 10065B   25349.92760682  .00000021  00000+0  00000+0 0  9999", "line2": "2 37238   0.0119 291.5796 0002525 338.0448 215.1462  1.00271776 51412"}}, "geometry": {"type": "Point", "coordinates": [85.29764037341641, 0.02034705497956397]}}, {"type": "Feature", "properties": {"norad_id": 37392, "name": "INTELSAT 28 (IS-28)", "group": "intelsat", "lat": -1.3211648793519, "lon": -12.34087476045243, "alt_km": 35782.95467281202, "timestamp": "2025-12-16T19:34:23.932975+00:00", "meta": {"OBJECT_NAME": "INTELSAT 28 (IS-28)", "OBJECT_ID": "2011-016A", "EPOCH": "2025-12-15T20:05:05.242272", "MEAN_MOTION": 1.00272608, "ECCENTRICITY": 0.00036601, "INCLINATION": 1.3324, "RA_OF_ASC_NODE": 85.022, "ARG_OF_PERICENTER": 184.4045, "MEAN_ANOMALY": 84.9076, "EPHEMERIS_TYPE": 0, "CLASSIFICATION_TYPE": "U", "NORAD_CAT_ID": 37392, "ELEMENT_SET_NO": 999, "REV_AT_EPOCH": 5144, "BSTAR": 0, "MEAN_MOTION_DOT": -2.03e-06, "MEAN_MOTION_DDOT": 0}, "tle": {"line1": "1 37392U 11016A   25349.83686623 -.00000203  00000+0  00000+0 0  9992", "line2": "2 37392   1.3324  85.0220 0003660 184.4045  84.9076  1.00272608 51441"}}, "geometry": {"type": "Point", "coordinates": [-12.34087476045243, -1.3211648793519]}}]}